start=new Date('2022-07-03T00:00:00.000Z').valueOf();
sats=[{"BSTAR":"0.00000937320000","OBJECT_NAME":"STARLINK-1942","NORAD_CAT_ID":"46794","RCS_SIZE":"LARGE","FILE":"3506647","RA_OF_ASC_NODE":"244.7243","REV_AT_EPOCH":"9378","CENTER_NAME":"EARTH","ELEMENT_SET_NO":"999","ECCENTRICITY":"0.00016480","MEAN_MOTION":"15.06402021","LAUNCH_DATE":"2020-10-24","MEAN_ELEMENT_THEORY":"SGP4","MEAN_MOTION_DDOT":"0.0000000000000","APOAPSIS":"548.349","TLE_LINE1":"1 46794U 20074BH  22183.54140194 -.00000142  00000-0  93732-5 0  9994","MEAN_ANOMALY":"306.1922","ARG_OF_PERICENTER":"53.9219","TLE_LINE2":"2 46794  53.0547 244.7243 0001648  53.9219 306.1922 15.06402021 93781","EPOCH":"2022-07-02T12:59:37.127616","MEAN_MOTION_DOT":"-0.00000142","PERIAPSIS":"546.066","OBJECT_TYPE":"PAYLOAD","SEMIMAJOR_AXIS":"6925.342","CLASSIFICATION_TYPE":"U","REF_FRAME":"TEME","DECAY_DATE":null,"INCLINATION":"53.0547","SITE":"AFETR","TIME_SYSTEM":"UTC","EPHEMERIS_TYPE":"0","OBJECT_ID":"2020-074BH","COUNTRY_CODE":"US","GP_ID":"207267090","PERIOD":"95.592"},{"BSTAR":"0.00008169500000","NORAD_CAT_ID":"46796","OBJECT_NAME":"STARLINK-1944","RCS_SIZE":"LARGE","FILE":"3506647","RA_OF_ASC_NODE":"234.8388","REV_AT_EPOCH":"9391","ELEMENT_SET_NO":"999","ECCENTRICITY":"0.00016670","CENTER_NAME":"EARTH","MEAN_MOTION":"15.06394423","LAUNCH_DATE":"2020-10-24","MEAN_ELEMENT_THEORY":"SGP4","APOAPSIS":"548.385","MEAN_MOTION_DDOT":"0.0000000000000","TLE_LINE1":"1 46796U 20074BK  22183.51654321  .00000935  00000-0  81695-4 0  9998","MEAN_ANOMALY":"309.5166","ARG_OF_PERICENTER":"50.5970","TLE_LINE2":"2 46796  53.0536 234.8388 0001667  50.5970 309.5166 15.06394423 93917","MEAN_MOTION_DOT":"0.00000935","EPOCH":"2022-07-02T12:23:49.333344","PERIAPSIS":"546.076","OBJECT_TYPE":"PAYLOAD","SEMIMAJOR_AXIS":"6925.366","CLASSIFICATION_TYPE":"U","REF_FRAME":"TEME","DECAY_DATE":null,"INCLINATION":"53.0536","SITE":"AFETR","TIME_SYSTEM":"UTC","OBJECT_ID":"2020-074BK","EPHEMERIS_TYPE":"0","COUNTRY_CODE":"US","GP_ID":"207265839","PERIOD":"95.592"},{"SEMIMAJOR_AXIS":"6925.327","REF_FRAME":"TEME","CLASSIFICATION_TYPE":"U","DECAY_DATE":null,"INCLINATION":"53.0552","TLE_LINE2":"2 46798  53.0552 259.9937 0001296  69.2568 290.8560 15.06407078 93565","EPOCH":"2022-07-02T11:34:00.861024","MEAN_MOTION_DOT":"0.00001932","PERIAPSIS":"546.294","OBJECT_TYPE":"PAYLOAD","GP_ID":"207266589","COUNTRY_CODE":"US","PERIOD":"95.592","SITE":"AFETR","TIME_SYSTEM":"UTC","EPHEMERIS_TYPE":"0","OBJECT_ID":"2020-074BM","OBJECT_NAME":"STARLINK-1948","NORAD_CAT_ID":"46798","RCS_SIZE":"LARGE","REV_AT_EPOCH":"9356","FILE":"3506647","RA_OF_ASC_NODE":"259.9937","ELEMENT_SET_NO":"999","CENTER_NAME":"EARTH","ECCENTRICITY":"0.00012960","BSTAR":"0.00014851000000","TLE_LINE1":"1 46798U 20074BM  22183.48195441  .00001932  00000-0  14851-3 0  9996","MEAN_ANOMALY":"290.8560","ARG_OF_PERICENTER":"69.2568","MEAN_MOTION":"15.06407078","MEAN_ELEMENT_THEORY":"SGP4","LAUNCH_DATE":"2020-10-24","MEAN_MOTION_DDOT":"0.0000000000000","APOAPSIS":"548.089"},{"MEAN_ANOMALY":"269.6997","TLE_LINE1":"1 47122U 20088A   22183.50270421 -.00000569  00000-0 -19314-4 0  9995","ARG_OF_PERICENTER":"90.4133","MEAN_MOTION":"15.06395631","MEAN_ELEMENT_THEORY":"SGP4","LAUNCH_DATE":"2020-11-25","MEAN_MOTION_DDOT":"0.0000000000000","APOAPSIS":"548.077","OBJECT_NAME":"STARLINK-1777","NORAD_CAT_ID":"47122","RCS_SIZE":"LARGE","RA_OF_ASC_NODE":"224.8773","FILE":"3506565","REV_AT_EPOCH":"8923","ELEMENT_SET_NO":"999","ECCENTRICITY":"0.00012270","CENTER_NAME":"EARTH","BSTAR":"-0.00001931400000","GP_ID":"207242993","COUNTRY_CODE":"US","PERIOD":"95.592","SITE":"AFETR","TIME_SYSTEM":"UTC","OBJECT_ID":"2020-088A","EPHEMERIS_TYPE":"0","REF_FRAME":"TEME","CLASSIFICATION_TYPE":"U","SEMIMAJOR_AXIS":"6925.362","DECAY_DATE":null,"INCLINATION":"53.0542","EPOCH":"2022-07-02T12:03:53.643744","MEAN_MOTION_DOT":"-0.00000569","TLE_LINE2":"2 47122  53.0542 224.8773 0001227  90.4133 269.6997 15.06395631 89231","PERIAPSIS":"546.377","OBJECT_TYPE":"PAYLOAD"},{"PERIAPSIS":"546.340","TLE_LINE2":"2 47124  53.0537 229.6616 0001286  75.7882 284.3249 15.06394582 89179","MEAN_MOTION_DOT":"-0.00000573","EPOCH":"2022-07-02T13:20:11.968512","OBJECT_TYPE":"PAYLOAD","SEMIMAJOR_AXIS":"6925.365","CLASSIFICATION_TYPE":"U","REF_FRAME":"TEME","INCLINATION":"53.0537","DECAY_DATE":null,"TIME_SYSTEM":"UTC","SITE":"AFETR","EPHEMERIS_TYPE":"0","OBJECT_ID":"2020-088C","PERIOD":"95.592","GP_ID":"207271266","COUNTRY_CODE":"US","BSTAR":"-0.00001956500000","RCS_SIZE":"LARGE","OBJECT_NAME":"STARLINK-1785","NORAD_CAT_ID":"47124","ELEMENT_SET_NO":"999","ECCENTRICITY":"0.00012860","CENTER_NAME":"EARTH","REV_AT_EPOCH":"8917","FILE":"3506678","RA_OF_ASC_NODE":"229.6616","MEAN_ELEMENT_THEORY":"SGP4","LAUNCH_DATE":"2020-11-25","MEAN_MOTION":"15.06394582","APOAPSIS":"548.121","MEAN_MOTION_DDOT":"0.0000000000000","ARG_OF_PERICENTER":"75.7882","TLE_LINE1":"1 47124U 20088C   22183.55569408 -.00000573  00000-0 -19565-4 0  9991","MEAN_ANOMALY":"284.3249"},{"SEMIMAJOR_AXIS":"6925.368","REF_FRAME":"TEME","CLASSIFICATION_TYPE":"U","INCLINATION":"53.0536","DECAY_DATE":null,"PERIAPSIS":"546.150","TLE_LINE2":"2 47126  53.0536 224.7621 0001564  60.4140 299.7004 15.06393724 88949","MEAN_MOTION_DOT":"0.00000802","EPOCH":"2022-07-02T12:41:04.185888","OBJECT_TYPE":"PAYLOAD","PERIOD":"95.593","GP_ID":"207266626","COUNTRY_CODE":"US","TIME_SYSTEM":"UTC","SITE":"AFETR","EPHEMERIS_TYPE":"0","OBJECT_ID":"2020-088E","RCS_SIZE":"LARGE","NORAD_CAT_ID":"47126","OBJECT_NAME":"STARLINK-1812","ELEMENT_SET_NO":"999","ECCENTRICITY":"0.00015640","CENTER_NAME":"EARTH","FILE":"3506647","RA_OF_ASC_NODE":"224.7621","REV_AT_EPOCH":"8894","BSTAR":"0.00007275100000","ARG_OF_PERICENTER":"60.4140","TLE_LINE1":"1 47126U 20088E   22183.52852067  .00000802  00000-0  72751-4 0  9995","MEAN_ANOMALY":"299.7004","MEAN_ELEMENT_THEORY":"SGP4","LAUNCH_DATE":"2020-11-25","MEAN_MOTION":"15.06393724","MEAN_MOTION_DDOT":"0.0000000000000","APOAPSIS":"548.316"},{"RCS_SIZE":"LARGE","OBJECT_NAME":"STARLINK-1837","NORAD_CAT_ID":"47128","CENTER_NAME":"EARTH","ELEMENT_SET_NO":"999","ECCENTRICITY":"0.00014850","RA_OF_ASC_NODE":"205.5582","FILE":"3506647","REV_AT_EPOCH":"8919","BSTAR":"0.00009404000000","ARG_OF_PERICENTER":"59.9742","TLE_LINE1":"1 47128U 20088G   22183.35343113  .00001119  00000-0  94040-4 0  9992","MEAN_ANOMALY":"300.1394","LAUNCH_DATE":"2020-11-25","MEAN_ELEMENT_THEORY":"SGP4","MEAN_MOTION":"15.06398764","APOAPSIS":"548.246","MEAN_MOTION_DDOT":"0.0000000000000","SEMIMAJOR_AXIS":"6925.352","REF_FRAME":"TEME","CLASSIFICATION_TYPE":"U","INCLINATION":"53.0533","DECAY_DATE":null,"PERIAPSIS":"546.189","TLE_LINE2":"2 47128  53.0533 205.5582 0001485  59.9742 300.1394 15.06398764 89190","MEAN_MOTION_DOT":"0.00001119","EPOCH":"2022-07-02T08:28:56.449632","OBJECT_TYPE":"PAYLOAD","PERIOD":"95.592","GP_ID":"207266877","COUNTRY_CODE":"US","TIME_SYSTEM":"UTC","SITE":"AFETR","OBJECT_ID":"2020-088G","EPHEMERIS_TYPE":"0"},{"TIME_SYSTEM":"UTC","SITE":"AFETR","EPHEMERIS_TYPE":"0","OBJECT_ID":"2020-088H","PERIOD":"95.592","COUNTRY_CODE":"US","GP_ID":"207243279","PERIAPSIS":"545.932","TLE_LINE2":"2 47129  53.0542 214.8342 0001873  55.7874 304.3292 15.06394937 89381","MEAN_MOTION_DOT":"-0.00000552","EPOCH":"2022-07-02T12:21:08.691552","OBJECT_TYPE":"PAYLOAD","SEMIMAJOR_AXIS":"6925.364","CLASSIFICATION_TYPE":"U","REF_FRAME":"TEME","INCLINATION":"53.0542","DECAY_DATE":null,"MEAN_ELEMENT_THEORY":"SGP4","LAUNCH_DATE":"2020-11-25","MEAN_MOTION":"15.06394937","MEAN_MOTION_DDOT":"0.0000000000000","APOAPSIS":"548.526","ARG_OF_PERICENTER":"55.7874","TLE_LINE1":"1 47129U 20088H   22183.51468393 -.00000552  00000-0 -18164-4 0  9994","MEAN_ANOMALY":"304.3292","BSTAR":"-0.00001816400000","RCS_SIZE":"LARGE","NORAD_CAT_ID":"47129","OBJECT_NAME":"STARLINK-1838","ECCENTRICITY":"0.00018730","ELEMENT_SET_NO":"999","CENTER_NAME":"EARTH","FILE":"3506566","RA_OF_ASC_NODE":"214.8342","REV_AT_EPOCH":"8938"},{"REV_AT_EPOCH":"8909","FILE":"3506683","RA_OF_ASC_NODE":"234.8994","CENTER_NAME":"EARTH","ELEMENT_SET_NO":"999","ECCENTRICITY":"0.00018160","OBJECT_NAME":"STARLINK-1839","NORAD_CAT_ID":"47130","RCS_SIZE":"LARGE","BSTAR":"0.00009299100000","MEAN_ANOMALY":"308.9560","TLE_LINE1":"1 47130U 20088J   22183.49810269  .00001104  00000-0  92991-4 0  9998","ARG_OF_PERICENTER":"51.1591","APOAPSIS":"548.472","MEAN_MOTION_DDOT":"0.0000000000000","MEAN_MOTION":"15.06399665","MEAN_ELEMENT_THEORY":"SGP4","LAUNCH_DATE":"2020-11-25","DECAY_DATE":null,"INCLINATION":"53.0543","CLASSIFICATION_TYPE":"U","REF_FRAME":"TEME","SEMIMAJOR_AXIS":"6925.350","OBJECT_TYPE":"PAYLOAD","EPOCH":"2022-07-02T11:57:16.072416","MEAN_MOTION_DOT":"0.00001104","TLE_LINE2":"2 47130  53.0543 234.8994 0001816  51.1591 308.9560 15.06399665 89091","PERIAPSIS":"545.957","GP_ID":"207271538","COUNTRY_CODE":"US","PERIOD":"95.592","OBJECT_ID":"2020-088J","EPHEMERIS_TYPE":"0","SITE":"AFETR","TIME_SYSTEM":"UTC"},{"COUNTRY_CODE":"US","GP_ID":"207266127","PERIOD":"95.593","SITE":"AFETR","TIME_SYSTEM":"UTC","OBJECT_ID":"2020-088M","EPHEMERIS_TYPE":"0","SEMIMAJOR_AXIS":"6925.368","CLASSIFICATION_TYPE":"U","REF_FRAME":"TEME","DECAY_DATE":null,"INCLINATION":"53.0551","TLE_LINE2":"2 47133  53.0551 214.8657 0001290  74.5569 285.5563 15.06393730 89075","EPOCH":"2022-07-02T12:10:33.418272","MEAN_MOTION_DOT":"0.00001195","PERIAPSIS":"546.339","OBJECT_TYPE":"PAYLOAD","TLE_LINE1":"1 47133U 20088M   22183.50733123  .00001195  00000-0  99116-4 0  9992","MEAN_ANOMALY":"285.5563","ARG_OF_PERICENTER":"74.5569","MEAN_MOTION":"15.06393730","LAUNCH_DATE":"2020-11-25","MEAN_ELEMENT_THEORY":"SGP4","MEAN_MOTION_DDOT":"0.0000000000000","APOAPSIS":"548.126","OBJECT_NAME":"STARLINK-1843","NORAD_CAT_ID":"47133","RCS_SIZE":"LARGE","FILE":"3506647","REV_AT_EPOCH":"8907","RA_OF_ASC_NODE":"214.8657","CENTER_NAME":"EARTH","ELEMENT_SET_NO":"999","ECCENTRICITY":"0.00012900","BSTAR":"0.00009911600000"}];
